IRIDIUM 119             
1 42959U 17061E   24198.86007492  .00000421  00000+0  14318-3 0  9990
2 42959  86.3989 317.9124 0002367  99.8444 260.3019 14.34216645354433
IRIDIUM 107             
1 42960U 17061F   24198.87910584  .00000029  00000+0  32651-5 0  9994
2 42960  86.3990 317.9215 0002427  95.2558 264.8915 14.34217818354449
IRIDIUM 132             
1 42961U 17061G   24198.88544833  .00000063  00000+0  15513-4 0  9991
2 42961  86.3989 317.9033 0002500  91.6144 268.5339 14.34218071354442
IRIDIUM 136             
1 42962U 17061H   24198.84739055  .00000164  00000+0  51461-4 0  9994
2 42962  86.3989 317.9225 0002284 102.2055 257.9397 14.34216859354454
IRIDIUM 139             
1 42963U 17061J   24198.85373450  .00000128  00000+0  38663-4 0  9998
2 42963  86.3991 317.9704 0002570  93.9928 266.1562 14.34216848354468
IRIDIUM 125             
1 42964U 17061K   24198.84104758  .00000548  00000+0  18850-3 0  9992
2 42964  86.3994 318.0241 0002518 103.3747 256.7729 14.34220549354471
IRIDIUM 135             
1 43070U 17083A   24198.53609947  .00000290  00000+0  96484-4 0  9995
2 43070  86.3947 254.7992 0002089  87.3215 272.8219 14.34219377343727
IRIDIUM 138             
1 43071U 17083B   24198.70099972  .00000351  00000+0  11815-3 0  9998
2 43071  86.3936 254.4437 0002360 101.8823 258.2637 14.34221777343736
